NORAD_CAT_ID,OBJECT_NAME,OBJECT_TYPE,EPOCH,MEAN_MOTION,ECCENTRICITY,INCLINATION,RA_OF_ASC_NODE,ARG_OF_PERICENTER,MEAN_ANOMALY,BSTAR,MEAN_MOTION_DOT,MEAN_MOTION_DDOT,TLE_LINE0,TLE_LINE1,TLE_LINE2,SEMIMAJOR_AXIS,PERIOD,APOGEE,PERIGEE,DECAYED
55668.0,STARLINK-5455,PAYLOAD,2024-05-07 21:20:53,14.98326338,0.0002743,70.0002,55.8437,261.0654,99.0195,-2.188e-05,-3.54e-06,0.0,0 STARLINK-5455,1 55668U 23021AS  24128.88950321 -.00000354  00000-0 -21880-4 0  9998,2 55668  70.0002  55.8437 0002743 261.0654  99.0195 14.98326338 68502,6950.204,96.107,573.976,570.163,0.0
55668.0,STARLINK-5455,PAYLOAD,2024-05-08 05:21:33,14.98325715,0.0002778,70.0004,55.0023,264.3023,95.782,-2.3941e-05,-3.79e-06,0.0,0 STARLINK-5455,1 55668U 23021AS  24129.22330536 -.00000379  00000-0 -23941-4 0  9994,2 55668  70.0004  55.0023 0002778 264.3023  95.7820 14.98325715 68855,6950.206,96.107,574.002,570.14,0.0
55668.0,STARLINK-5455,PAYLOAD,2024-05-08 21:22:53,14.98333075,0.0002795,70.0006,53.3198,261.7562,98.328,2.69e-05,2.28e-06,0.0,0 STARLINK-5455,1 55668U 23021AS  24129.89089948  .00000228  00000-0  26900-4 0  9994,2 55668  70.0006  53.3198 0002795 261.7562  98.3280 14.98333075 68654,6950.183,96.107,573.991,570.106,0.0
55668.0,STARLINK-5455,PAYLOAD,2024-05-09 03:47:25,14.98341233,0.0002702,70.0009,52.6469,261.5763,98.509,9.4534e-05,1.035e-05,0.0,0 STARLINK-5455,1 55668U 23021AS  24130.15793323  .00001035  00000-0  94534-4 0  9999,2 55668  70.0009  52.6469 0002702 261.5763  98.5090 14.98341233 68699,6950.158,96.106,573.901,570.145,0.0
55668.0,STARLINK-5455,PAYLOAD,2024-05-09 11:48:06,14.98339784,0.0002624,70.0012,51.8038,267.3339,92.752,-7.2649e-05,-9.6e-06,0.0,0 STARLINK-5455,1 55668U 23021AS  24130.49173692 -.00000960  00000-0 -72649-4 0  9998,2 55668  70.0012  51.8038 0002624 267.3339  92.7520 14.98339784 69044,6950.163,96.106,573.851,570.204,0.0
55668.0,STARLINK-5455,PAYLOAD,2024-05-09 21:24:54,14.98327338,0.0002719,70.0007,50.7944,268.1321,91.9526,0.00017053,1.942e-05,0.0,0 STARLINK-5455,1 55668U 23021AS  24130.89230161  .00001942  00000-0  17053-3 0  9993,2 55668  70.0007  50.7944 0002719 268.1321  91.9526 14.98327338 68809,6950.201,96.107,573.956,570.176,0.0
55668.0,STARLINK-5455,PAYLOAD,2024-05-09 23:01:03,14.98326422,0.0002733,70.0008,50.626,268.26,91.8246,0.00015281,1.731e-05,0.0,0 STARLINK-5455,1 55668U 23021AS  24130.95906256  .00001731  00000-0  15281-3 0  9992,2 55668  70.0008  50.6260 0002733 268.2600  91.8246 14.98326422 69113,6950.204,96.107,573.968,570.169,0.0
55668.0,STARLINK-5455,PAYLOAD,2024-05-10 11:50:07,14.98332622,0.0002992,70.0005,49.2795,270.3149,89.7667,0.00011925,1.33e-05,0.0,0 STARLINK-5455,1 55668U 23021AS  24131.49313923  .00001330  00000-0  11925-3 0  9991,2 55668  70.0005  49.2795 0002992 270.3149  89.7667 14.98332622 69196,6950.185,96.107,574.129,569.97,0.0
55668.0,STARLINK-5455,PAYLOAD,2024-05-10 21:26:55,14.98334026,0.0002696,70.001,48.2717,262.8984,97.1868,-7.4384e-06,-1.82e-06,0.0,0 STARLINK-5455,1 55668U 23021AS  24131.89370195 -.00000182  00000-0 -74384-5 0  9995,2 55668  70.0010  48.2717 0002696 262.8984  97.1868 14.98334026 68958,6950.18,96.107,573.919,570.172,0.0
55668.0,STARLINK-5455,PAYLOAD,2024-05-11 03:51:25,14.9837217,0.0002579,70.0009,47.5972,277.2864,82.8002,0.00043351,5.089e-05,0.0,0 STARLINK-5455,1 55668U 23021AS  24132.16070953  .00005089  00000-0  43351-3 0  9992,2 55668  70.0009  47.5972 0002579 277.2864  82.8002 14.98372170 68995,6950.062,96.104,573.72,570.135,0.0
55668.0,STARLINK-5455,PAYLOAD,2024-05-11 11:52:03,14.98390472,0.000299,70.0014,46.7547,270.5718,89.5098,0.00067123,7.938e-05,0.0,0 STARLINK-5455,1 55668U 23021AS  24132.49448101  .00007938  00000-0  67123-3 0  9990,2 55668  70.0014  46.7547 0002990 270.5718  89.5098 14.98390472 69042,6950.006,96.103,573.949,569.793,0.0
55668.0,STARLINK-5455,PAYLOAD,2024-05-11 21:28:59,14.98234527,0.0002468,70.0026,45.7459,260.178,99.91,-0.0020579,-0.00024501,0.0,0 STARLINK-5455,1 55668U 23021AS  24132.89513315 -.00024501  00000-0 -20579-2 0  9994,2 55668  70.0026  45.7459 0002468 260.1780  99.9100 14.98234527 69104,6950.488,96.113,574.069,570.638,0.0
55668.0,STARLINK-5455,PAYLOAD,2024-05-12 11:54:13,14.98248168,0.0003339,70.0032,44.2316,269.3156,90.7621,-0.0013964,-0.0001668,0.0,0 STARLINK-5455,1 55668U 23021AS  24133.49599078 -.00016680  00000-0 -13964-2 0  9990,2 55668  70.0032  44.2316 0003339 269.3156  90.7621 14.98248168 69195,6950.446,96.112,574.632,569.99,0.0
55668.0,STARLINK-5455,PAYLOAD,2024-05-12 21:31:01,14.98287804,0.0002865,70.0018,43.2209,271.4479,88.6352,-0.00034432,-4.194e-05,0.0,0 STARLINK-5455,1 55668U 23021AS  24133.89654586 -.00004194  00000-0 -34432-3 0  9991,2 55668  70.0018  43.2209 0002865 271.4479  88.6352 14.98287804 69258,6950.323,96.11,574.18,570.197,0.0
55668.0,STARLINK-5455,PAYLOAD,2024-05-13 03:55:34,14.98292261,0.0002742,70.0015,42.5471,264.8226,95.2621,-0.00033265,-4.056e-05,0.0,0 STARLINK-5455,1 55668U 23021AS  24134.16359099 -.00004056  00000-0 -33265-3 0  9993,2 55668  70.0015  42.5471 0002742 264.8226  95.2621 14.98292261 69591,6950.31,96.109,574.08,570.269,0.0
55668.0,STARLINK-5455,PAYLOAD,2024-05-14 03:57:33,14.98322477,0.0002786,70.0032,40.0225,265.809,94.2751,0.00056806,6.69e-05,0.0,0 STARLINK-5455,1 55668U 23021AS  24135.16496955  .00006690  00000-0  56806-3 0  9997,2 55668  70.0032  40.0225 0002786 265.8090  94.2751 14.98322477 69448,6950.216,96.107,574.017,570.145,0.0
55668.0,STARLINK-5455,PAYLOAD,2024-05-14 10:22:06,14.98296472,0.0002158,70.0016,39.3519,257.6399,102.4518,0.001445,0.00017175,0.0,0 STARLINK-5455,1 55668U 23021AS  24135.43202348  .00017175  00000-0  14450-2 0  9996,2 55668  70.0016  39.3519 0002158 257.6399 102.4518 14.98296472 69483,6950.297,96.109,573.661,570.662,0.0
55668.0,STARLINK-5455,PAYLOAD,2024-05-14 21:35:01,14.98356706,0.0002921,70.0006,38.1706,266.1219,93.9606,0.00078856,9.335e-05,0.0,0 STARLINK-5455,1 55668U 23021AS  24135.89931729  .00009335  00000-0  78856-3 0  9998,2 55668  70.0006  38.1706 0002921 266.1219  93.9606 14.98356706 69851,6950.11,96.105,574.005,569.945,0.0
55668.0,STARLINK-5455,PAYLOAD,2024-05-15 03:59:32,14.98408934,0.0002904,70.0021,37.4967,271.7653,88.3174,0.0014837,0.00017691,0.0,0 STARLINK-5455,1 55668U 23021AS  24136.16634563  .00017691  00000-0  14837-2 0  9997,2 55668  70.0021  37.4967 0002904 271.7653  88.3174 14.98408934 69594,6949.949,96.102,573.832,569.796,0.0
55668.0,STARLINK-5455,PAYLOAD,2024-05-15 10:24:05,14.98380525,0.0001464,70.0043,36.8183,339.1387,20.9712,0.00038103,4.462e-05,0.0,0 STARLINK-5455,1 55668U 23021AS  24136.43339427  .00004462  00000-0  38103-3 0  9993,2 55668  70.0043  36.8183 0001464 339.1387  20.9712 14.98380525 69634,6950.037,96.104,572.919,570.884,0.0
55668.0,STARLINK-5455,PAYLOAD,2024-05-15 21:37:00,14.98350307,0.0003266,70.0023,35.6447,271.7647,88.3138,0.0011511,0.00013676,0.0,0 STARLINK-5455,1 55668U 23021AS  24136.90069768  .00013676  00000-0  11511-2 0  9993,2 55668  70.0023  35.6447 0003266 271.7647  88.3138 14.98350307 69707,6950.13,96.106,574.265,569.725,0.0
55668.0,STARLINK-5455,PAYLOAD,2024-05-15 23:13:08,14.98351945,0.0003176,70.0025,35.477,269.6567,90.4229,0.0015758,0.0001877,0.0,0 STARLINK-5455,1 55668U 23021AS  24136.96745696  .00018770  00000-0  15758-2 0  9997,2 55668  70.0025  35.4770 0003176 269.6567  90.4229 14.98351945 70013,6950.125,96.106,574.197,569.783,0.0
55668.0,STARLINK-5455,PAYLOAD,2024-05-16 10:26:04,14.98355038,0.0003564,70.0032,34.2971,272.8909,87.1842,0.0017692,0.00021095,0.0,0 STARLINK-5455,1 55668U 23021AS  24137.43477288  .00021095  00000-0  17692-2 0  9992,2 55668  70.0032  34.2971 0003564 272.8909  87.1842 14.98355038 69781,6950.115,96.105,574.457,569.503,0.0
55668.0,STARLINK-5455,PAYLOAD,2024-05-16 16:50:36,14.98334874,0.0003499,70.0031,33.6234,269.5943,90.4815,0.0013054,0.0001552,0.0,0 STARLINK-5455,1 55668U 23021AS  24137.70181643  .00015520  00000-0  13054-2 0  9993,2 55668  70.0031  33.6234 0003499 269.5943  90.4815 14.98334874 69820,6950.178,96.107,574.475,569.611,0.0
55668.0,STARLINK-5455,PAYLOAD,2024-05-17 02:27:25,14.98321857,0.0003304,70.0029,32.6146,270.7515,89.3266,0.00020035,2.298e-05,0.0,0 STARLINK-5455,1 55668U 23021AS  24138.10238240  .00002298  00000-0  20035-3 0  9990,2 55668  70.0029  32.6146 0003304 270.7515  89.3266 14.98321857 69882,6950.218,96.108,574.379,569.787,0.0
55668.0,STARLINK-5455,PAYLOAD,2024-05-17 10:28:06,14.98317922,0.0003285,70.0033,31.7739,270.9256,89.1526,0.00049119,5.771e-05,0.0,0 STARLINK-5455,1 55668U 23021AS  24138.43618731  .00005771  00000-0  49119-3 0  9996,2 55668  70.0033  31.7739 0003285 270.9256  89.1526 14.98317922 70233,6950.23,96.108,574.378,569.812,0.0
55668.0,STARLINK-5455,PAYLOAD,2024-05-17 23:17:10,14.98342536,0.0003383,70.0023,30.4266,270.1842,89.8929,0.001433,0.00017053,0.0,0 STARLINK-5455,1 55668U 23021AS  24138.97026569  .00017053  00000-0  14330-2 0  9999,2 55668  70.0023  30.4266 0003383 270.1842  89.8929 14.98342536 70317,6950.154,96.106,574.37,569.668,0.0
55668.0,STARLINK-5455,PAYLOAD,2024-05-18 02:29:26,14.98354733,0.0003303,70.0031,30.0891,269.9635,90.1146,0.0019255,0.00022972,0.0,0 STARLINK-5455,1 55668U 23021AS  24139.10378332  .00022972  00000-0  19255-2 0  9990,2 55668  70.0031  30.0891 0003303 269.9635  90.1146 14.98354733 70031,6950.116,96.105,574.277,569.686,0.0
55668.0,STARLINK-5455,PAYLOAD,2024-05-18 10:30:06,14.98363462,0.0003542,70.0064,29.2471,269.3639,90.7114,0.0014999,0.00017865,0.0,0 STARLINK-5455,1 55668U 23021AS  24139.43757747  .00017865  00000-0  14999-2 0  9992,2 55668  70.0064  29.2471 0003542 269.3639  90.7114 14.98363462 70382,6950.089,96.105,574.416,569.493,0.0
55668.0,STARLINK-5455,PAYLOAD,2024-05-18 20:06:54,14.98349388,0.0003231,70.0027,28.2375,267.7771,92.3018,0.00046215,5.428e-05,0.0,0 STARLINK-5455,1 55668U 23021AS  24139.83813653  .00005428  00000-0  46215-3 0  9994,2 55668  70.0027  28.2375 0003231 267.7771  92.3018 14.98349388 70143,6950.133,96.106,574.244,569.752,0.0
